[{"OBJECT_NAME":"CHECKMATE 5","OBJECT_ID":"2023-050B","EPOCH":"2026-03-09T17:13:01.638912","MEAN_MOTION":13.84966378,"ECCENTRICITY":0.00060126,"INCLINATION":81.004,"RA_OF_ASC_NODE":166.9717,"ARG_OF_PERICENTER":219.7953,"MEAN_ANOMALY":140.2763,"EPHEMERIS_TYPE":0,"CLASSIFICATION_TYPE":"U","NORAD_CAT_ID":56163,"ELEMENT_SET_NO":999,"REV_AT_EPOCH":14839,"BSTAR":0.0001009833,"MEAN_MOTION_DOT":1.25e-6,"MEAN_MOTION_DDOT":0},{"OBJECT_NAME":"SDA_1683","OBJECT_ID":"2025-230V","EPOCH":"2026-03-09T17:24:00.607392","MEAN_MOTION":13.84109242,"ECCENTRICITY":0.0001019,"INCLINATION":81.3007,"RA_OF_ASC_NODE":303.9867,"ARG_OF_PERICENTER":88.3759,"MEAN_ANOMALY":271.7514,"EPHEMERIS_TYPE":0,"CLASSIFICATION_TYPE":"U","NORAD_CAT_ID":65993,"ELEMENT_SET_NO":999,"REV_AT_EPOCH":2004,"BSTAR":-0.0044459645,"MEAN_MOTION_DOT":-4.932e-5,"MEAN_MOTION_DDOT":0}]
